NORAD_CAT_ID,OBJECT_NAME,OBJECT_TYPE,EPOCH,MEAN_MOTION,ECCENTRICITY,INCLINATION,RA_OF_ASC_NODE,ARG_OF_PERICENTER,MEAN_ANOMALY,BSTAR,MEAN_MOTION_DOT,MEAN_MOTION_DDOT,TLE_LINE0,TLE_LINE1,TLE_LINE2,SEMIMAJOR_AXIS,PERIOD,APOGEE,PERIGEE,DECAYED
49728.0,STARLINK-3240,PAYLOAD,2023-06-21 11:45:30,15.08839156,8.99e-05,53.2166,293.2812,67.6619,292.4468,1.4981e-05,-4.9e-07,0.0,0 STARLINK-3240,1 49728U 21115E   23172.48993505 -.00000049  00000-0  14981-4 0  9999,2 49728  53.2166 293.2812 0000899  67.6619 292.4468 15.08839156 86716,6917.883,95.438,540.37,539.126,0.0
49728.0,STARLINK-3240,PAYLOAD,2023-06-21 13:20:53,15.08839889,0.0001062,53.2169,292.9848,71.8158,288.2949,-1.1556e-05,-4.72e-06,0.0,0 STARLINK-3240,1 49728U 21115E   23172.55617495 -.00000472  00000-0 -11556-4 0  9994,2 49728  53.2169 292.9848 0001062  71.8158 288.2949 15.08839889 85610,6917.881,95.438,540.48,539.011,0.0
49728.0,STARLINK-3240,PAYLOAD,2023-06-21 18:07:02,15.08849688,8.54e-05,53.2152,292.0892,69.9079,290.2005,8.1258e-05,1.006e-05,0.0,0 STARLINK-3240,1 49728U 21115E   23172.75488951  .00001006  00000-0  81258-4 0  9997,2 49728  53.2152 292.0892 0000854  69.9079 290.2005 15.08849688 86750,6917.851,95.437,540.307,539.125,0.0
49728.0,STARLINK-3240,PAYLOAD,2023-06-22 08:25:31,15.08832841,7.37e-05,53.216,289.4152,69.9884,290.1188,3.8186e-05,3.2e-06,0.0,0 STARLINK-3240,1 49728U 21115E   23173.35105896  .00000320  00000-0  38186-4 0  9998,2 49728  53.2160 289.4152 0000737  69.9884 290.1188 15.08832841 86846,6917.902,95.438,540.277,539.257,0.0
49728.0,STARLINK-3240,PAYLOAD,2023-06-22 17:57:49,15.08849045,7.81e-05,53.2163,287.6306,75.7519,284.356,0.00021088,3.071e-05,0.0,0 STARLINK-3240,1 49728U 21115E   23173.74849029  .00003071  00000-0  21088-3 0  9992,2 49728  53.2163 287.6306 0000781  75.7519 284.3560 15.08849045 86909,6917.853,95.437,540.258,539.177,0.0
49728.0,STARLINK-3240,PAYLOAD,2023-06-23 00:19:22,15.08839828,0.0001024,53.2158,286.4407,76.554,283.5566,0.00011236,1.501e-05,0.0,0 STARLINK-3240,1 49728U 21115E   23174.01345603  .00001501  00000-0  11236-3 0  9992,2 49728  53.2158 286.4407 0001024  76.5540 283.5566 15.08839828 86945,6917.881,95.438,540.454,539.038,0.0
49728.0,STARLINK-3240,PAYLOAD,2023-06-23 16:13:13,15.08851991,7.67e-05,53.2158,283.467,85.658,274.45,0.0001917,2.766e-05,0.0,0 STARLINK-3240,1 49728U 21115E   23174.67584818  .00002766  00000-0  19170-3 0  9996,2 49728  53.2158 283.4670 0000767  85.6580 274.4500 15.08851991 87046,6917.844,95.437,540.239,539.178,0.0
49728.0,STARLINK-3240,PAYLOAD,2023-06-24 00:10:09,15.08843062,9.07e-05,53.2159,281.9805,80.263,279.8465,4.648e-05,4.52e-06,0.0,0 STARLINK-3240,1 49728U 21115E   23175.00705269  .00000452  00000-0  46480-4 0  9994,2 49728  53.2159 281.9805 0000907  80.2630 279.8465 15.08843062 87097,6917.871,95.437,540.363,539.109,0.0
49728.0,STARLINK-3240,PAYLOAD,2023-06-24 08:07:05,15.08836375,0.0001247,53.2157,280.493,84.4721,275.6413,-2.9562e-05,-7.58e-06,0.0,0 STARLINK-3240,1 49728U 21115E   23175.33825778 -.00000758  00000-0 -29562-4 0  9991,2 49728  53.2157 280.4930 0001247  84.4721 275.6413 15.08836375 87145,6917.891,95.438,540.619,538.894,0.0
49728.0,STARLINK-3240,PAYLOAD,2023-06-24 14:28:37,15.08843696,9.1e-05,53.2155,279.3036,86.5263,273.5833,8.2566e-05,1.027e-05,0.0,0 STARLINK-3240,1 49728U 21115E   23175.60321348  .00001027  00000-0  82566-4 0  9996,2 49728  53.2155 279.3036 0000910  86.5263 273.5833 15.08843696 87188,6917.869,95.437,540.364,539.105,0.0
49728.0,STARLINK-3240,PAYLOAD,2023-06-25 06:22:29,15.08840207,0.0001054,53.2165,276.331,86.7146,273.3967,0.00010944,1.454e-05,0.0,0 STARLINK-3240,1 49728U 21115E   23176.26561707  .00001454  00000-0  10944-3 0  9998,2 49728  53.2165 276.3310 0001054  86.7146 273.3967 15.08840207 87285,6917.88,95.438,540.474,539.016,0.0
49728.0,STARLINK-3240,PAYLOAD,2023-06-26 06:13:16,15.08834094,0.0001291,53.2158,271.8711,77.7744,282.3393,9.1966e-05,1.176e-05,0.0,0 STARLINK-3240,1 49728U 21115E   23177.25922239  .00001176  00000-0  91966-4 0  9994,2 49728  53.2158 271.8711 0001291  77.7744 282.3393 15.08834094 87436,6917.898,95.438,540.657,538.87,0.0
49728.0,STARLINK-3240,PAYLOAD,2023-06-27 10:50:13,15.08846271,0.0001111,53.2159,266.5173,83.1042,277.0076,0.00027714,4.126e-05,0.0,0 STARLINK-3240,1 49728U 21115E   23178.45154160  .00004126  00000-0  27714-3 0  9994,2 49728  53.2159 266.5173 0001111  83.1042 277.0076 15.08846271 87612,6917.861,95.437,540.495,538.958,0.0
49728.0,STARLINK-3240,PAYLOAD,2023-06-28 10:41:00,15.08842044,0.00011,53.2159,262.0569,73.9099,286.2014,0.00017994,2.577e-05,0.0,0 STARLINK-3240,1 49728U 21115E   23179.44514334  .00002577  00000-0  17994-3 0  9994,2 49728  53.2159 262.0569 0001100  73.9099 286.2014 15.08842044 87763,6917.874,95.437,540.5,538.978,0.0
49728.0,STARLINK-3240,PAYLOAD,2023-06-29 12:07:10,15.08844723,0.000103,53.216,257.2994,84.3932,275.7178,5.9499e-05,6.59e-06,0.0,0 STARLINK-3240,1 49728U 21115E   23180.50497970  .00000659  00000-0  59499-4 0  9995,2 49728  53.2160 257.2994 0001030  84.3932 275.7178 15.08844723 87925,6917.866,95.437,540.443,539.018,0.0
49728.0,STARLINK-3240,PAYLOAD,2023-07-01 08:37:59,15.08831505,9.51e-05,53.2169,248.975,77.7312,282.3786,1.6867e-05,-1.9e-07,0.0,0 STARLINK-3240,1 49728U 21115E   23182.35971188 -.00000019  00000-0  16867-4 0  9991,2 49728  53.2169 248.9750 0000951  77.7312 282.3786 15.08831505 88205,6917.906,95.438,540.429,539.113,0.0
49728.0,STARLINK-3240,PAYLOAD,2023-07-01 21:21:03,15.08836418,0.0001004,53.2168,246.5963,85.8311,274.2796,4.0466e-05,3.56e-06,0.0,0 STARLINK-3240,1 49728U 21115E   23182.88962915  .00000356  00000-0  40466-4 0  9992,2 49728  53.2168 246.5963 0001004  85.8311 274.2796 15.08836418 88280,6917.891,95.438,540.451,539.062,0.0
49728.0,STARLINK-3240,PAYLOAD,2023-07-02 11:39:31,15.08844593,9.51e-05,53.2163,243.9185,88.4352,271.6749,7.1761e-05,8.55e-06,0.0,0 STARLINK-3240,1 49728U 21115E   23183.48578313  .00000855  00000-0  71761-4 0  9990,2 49728  53.2163 243.9185 0000951  88.4352 271.6749 15.08844593 88378,6917.866,95.437,540.389,539.073,0.0
49728.0,STARLINK-3240,PAYLOAD,2023-07-03 11:30:18,15.08842547,9.53e-05,53.2162,239.4573,85.6639,274.4462,0.00013384,1.843e-05,0.0,0 STARLINK-3240,1 49728U 21115E   23184.47938372  .00001843  00000-0  13384-3 0  9999,2 49728  53.2162 239.4573 0000953  85.6639 274.4462 15.08842547 88524,6917.873,95.437,540.397,539.078,0.0
49728.0,STARLINK-3240,PAYLOAD,2023-07-04 09:45:42,15.08842124,9.59e-05,53.216,235.2943,85.8598,274.2504,2.2193e-05,6.5e-07,0.0,0 STARLINK-3240,1 49728U 21115E   23185.40674615  .00000065  00000-0  22193-4 0  9994,2 49728  53.2160 235.2943 0000959  85.8598 274.2504 15.08842124 88660,6917.874,95.437,540.402,539.075,0.0
49728.0,STARLINK-3240,PAYLOAD,2023-07-06 03:05:44,15.08838611,9.81e-05,53.2159,227.5623,92.0808,268.0297,3.5141e-05,2.72e-06,0.0,0 STARLINK-3240,1 49728U 21115E   23187.12898681  .00000272  00000-0  35141-4 0  9993,2 49728  53.2159 227.5623 0000981  92.0808 268.0297 15.08838611 88921,6917.885,95.438,540.428,539.071,0.0
49728.0,STARLINK-3240,PAYLOAD,2023-07-07 07:42:40,15.08840526,9.96e-05,53.2159,222.21,90.3474,269.7633,6.3943e-05,7.3e-06,0.0,0 STARLINK-3240,1 49728U 21115E   23188.32130625  .00000730  00000-0  63943-4 0  9993,2 49728  53.2159 222.2100 0000996  90.3474 269.7633 15.08840526 89100,6917.879,95.438,540.433,539.055,0.0
49728.0,STARLINK-3240,PAYLOAD,2023-07-08 02:47:18,15.08836074,0.0001035,53.2159,218.6413,95.1285,264.9825,1.8968e-05,1.4e-07,0.0,0 STARLINK-3240,1 49728U 21115E   23189.11619098  .00000014  00000-0  18968-4 0  9999,2 49728  53.2159 218.6413 0001035  95.1285 264.9825 15.08836074 89220,6917.892,95.438,540.473,539.041,0.0
49728.0,STARLINK-3240,PAYLOAD,2023-07-09 12:10:25,15.08834813,9.91e-05,53.2157,212.3973,92.2408,267.8698,3.2601e-06,-2.36e-06,0.0,0 STARLINK-3240,1 49728U 21115E   23190.50723571 -.00000236  00000-0  32601-5 0  9994,2 49728  53.2157 212.3973 0000991  92.2408 267.8698 15.08834813 89437,6917.896,95.438,540.447,539.076,0.0
49728.0,STARLINK-3240,PAYLOAD,2023-07-10 18:22:44,15.08838312,9.94e-05,53.2159,206.7471,85.1024,275.0081,7.0048e-05,8.27e-06,0.0,0 STARLINK-3240,1 49728U 21115E   23191.76579452  .00000827  00000-0  70048-4 0  9991,2 49728  53.2159 206.7471 0000994  85.1024 275.0081 15.08838312 89623,6917.886,95.438,540.438,539.063,0.0
49728.0,STARLINK-3240,PAYLOAD,2023-07-12 00:35:04,15.08840058,0.0001019,53.2156,201.0965,84.076,276.0348,4.2688e-05,3.92e-06,0.0,0 STARLINK-3240,1 49728U 21115E   23193.02435429  .00000392  00000-0  42688-4 0  9993,2 49728  53.2156 201.0965 0001019  84.0760 276.0348 15.08840058 89818,6917.88,95.438,540.45,539.04,0.0
49728.0,STARLINK-3240,PAYLOAD,2023-07-13 09:58:09,15.0884223,0.0001095,53.2158,194.8519,87.5738,272.5379,1.7724e-05,-6e-08,0.0,0 STARLINK-3240,1 49728U 21115E   23194.41539241 -.00000006  00000-0  17724-4 0  9990,2 49728  53.2158 194.8519 0001095  87.5738 272.5379 15.08842230 90025,6917.874,95.437,540.496,538.981,0.0
49728.0,STARLINK-3240,PAYLOAD,2023-07-14 09:48:57,15.08837988,0.0001072,53.2154,190.3912,85.9866,274.1249,2.2972e-05,7.8e-07,0.0,0 STARLINK-3240,1 49728U 21115E   23195.40899564  .00000078  00000-0  22972-4 0  9996,2 49728  53.2154 190.3912 0001072  85.9866 274.1249 15.08837988 90172,6917.887,95.438,540.493,539.01,0.0
49728.0,STARLINK-3240,PAYLOAD,2023-07-15 16:01:17,15.0883639,0.0001048,53.2153,184.7414,82.3328,277.7784,2.111e-05,4.8e-07,0.0,0 STARLINK-3240,1 49728U 21115E   23196.66755805  .00000048  00000-0  21110-4 0  9994,2 49728  53.2153 184.7414 0001048  82.3328 277.7784 15.08836390 90362,6917.891,95.438,540.481,539.031,0.0
49728.0,STARLINK-3240,PAYLOAD,2023-07-17 15:42:51,15.08839047,0.0001101,53.2163,175.8218,88.3379,271.7739,5.1525e-05,5.32e-06,0.0,0 STARLINK-3240,1 49728U 21115E   23198.65476051  .00000532  00000-0  51525-4 0  9999,2 49728  53.2163 175.8218 0001101  88.3379 271.7739 15.08839047 90667,6917.883,95.438,540.51,538.987,0.0
